{
    "links": {
        "self": "http://www.neowsapp.com/rest/v1/neo/3582086?api_key=iIulBulltgU6a56xZRHN4H3l9WmuAYTsLGpBGhQ2"
    },
    "id": "3582086",
    "neo_reference_id": "3582086",
    "name": "(2011 UH10)",
    "designation": "2011 UH10",
    "nasa_jpl_url": "http://ssd.jpl.nasa.gov/sbdb.cgi?sstr=3582086",
    "absolute_magnitude_h": 27.1,
    "estimated_diameter": {
        "kilometers": {
            "estimated_diameter_min": 0.0101054342,
            "estimated_diameter_max": 0.0225964377
        },
        "meters": {
            "estimated_diameter_min": 10.1054341542,
            "estimated_diameter_max": 22.5964377109
        },
        "miles": {
            "estimated_diameter_min": 0.0062792237,
            "estimated_diameter_max": 0.0140407711
        },
        "feet": {
            "estimated_diameter_min": 33.1543125905,
            "estimated_diameter_max": 74.1352966996
        }
    },
    "is_potentially_hazardous_asteroid": false,
    "close_approach_data": [
        {
            "close_approach_date": "1956-12-30",
            "close_approach_date_full": "1956-Dec-30 10:24",
            "epoch_date_close_approach": -410362560000,
            "relative_velocity": {
                "kilometers_per_second": "15.3780573328",
                "kilometers_per_hour": "55361.0063980948",
                "miles_per_hour": "34399.1764477495"
            },
            "miss_distance": {
                "astronomical": "0.368550704",
                "lunar": "143.366223856",
                "kilometers": "55134400.30540048",
                "miles": "34258927.742187424"
            },
            "orbiting_body": "Earth"
        },
        {
            "close_approach_date": "2011-10-24",
            "close_approach_date_full": "2011-Oct-24 22:45",
            "epoch_date_close_approach": 1319496300000,
            "relative_velocity": {
                "kilometers_per_second": "4.8859886831",
                "kilometers_per_hour": "17589.5592590731",
                "miles_per_hour": "10929.4680851724"
            },
            "miss_distance": {
                "astronomical": "0.0247307502",
                "lunar": "9.6202618278",
                "kilometers": "3699667.553422074",
                "miles": "2298866.8178256612"
            },
            "orbiting_body": "Earth"
        }
    ],
    "orbital_data": {
        "orbit_id": "5",
        "orbit_determination_date": "2017-04-06 08:52:26",
        "first_observation_date": "2011-10-18",
        "last_observation_date": "2011-10-21",
        "data_arc_in_days": 3,
        "observations_used": 14,
        "orbit_uncertainty": "8",
        "minimum_orbit_intersection": ".0208675",
        "jupiter_tisserand_invariant": "4.560",
        "epoch_osculation": "2455853.5",
        "eccentricity": ".3157417939026536",
        "semi_major_axis": "1.463415221178896",
        "inclination": "3.353549891831207",
        "ascending_node_longitude": "23.36289476077926",
        "orbital_period": "646.6209610000959",
        "perihelion_distance": "1.001353874019423",
        "perihelion_argument": "27.79367861668226",
        "aphelion_distance": "1.92547656833837",
        "perihelion_time": "2455876.926837977082",
        "mean_anomaly": "346.9573333058897",
        "mean_motion": ".5567403807065058",
        "equinox": "J2000",
        "orbit_class": {
            "orbit_class_type": "APO",
            "orbit_class_description": "Near-Earth asteroid orbits which cross the Earth’s orbit similar to that of 1862 Apollo",
            "orbit_class_range": "a (semi-major axis) > 1.0 AU; q (perihelion) < 1.017 AU"
        }
    },
    "is_sentry_object": false
}